MALLIGYONG-1            
1 58400U 23179A   24296.90271028  .00008937  00000+0  40008-3 0  9992
2 58400  97.3821 181.4924 0008211   1.1928 358.9326 15.21471776 51149
